1 08820U 76039A   03335.82203837 -.00000021  00000-0  10000-3 0  9998
2 08820 109.8303 238.9881 0044358 265.4849  94.0733  6.38664560387766
